     3.04           N: GNSS NAV DATA    G: GPS              RINEX VERSION / TYPE
sbf2rin-15.6.1                          20241101 000744 UTC PGM / RUN BY / DATE 
GPSA   4.0047E-08  1.4901E-08 -1.1921E-07  5.9605E-08       IONOSPHERIC CORR    
GPSB   1.5155E+05 -4.9152E+04 -1.3107E+05 -1.9661E+05       IONOSPHERIC CORR    
GPUT  9.3132257462E-10 0.000000000E+00  61440 2339          TIME SYSTEM CORR    
    18                                                      LEAP SECONDS        
                                                            END OF HEADER       
G30 2024 10 31 12 00 00-2.914797514677E-04 7.617018127348E-12 0.000000000000E+00
     2.600000000000E+01-2.837500000000E+01 4.958063666110E-09-2.197069252433E+00
    -1.566484570503E-06 7.138357264921E-03 9.717419743538E-06 5.153787738800E+03
     3.888000000000E+05 8.195638656616E-08 2.404268961167E+00-6.146728992462E-08
     9.355563292192E-01 1.769687500000E+02-2.460572479463E+00-8.093194256883E-09
    -5.646663777640E-10 1.000000000000E+00 2.338000000000E+03 0.000000000000E+00
     2.000000000000E+00 0.000000000000E+00 3.725290298462E-09 2.600000000000E+01
     3.816180000000E+05 4.000000000000E+00
G09 2024 10 31 12 00 00 4.227552562952E-04 1.682565198280E-11 0.000000000000E+00
     9.700000000000E+01 6.812500000000E+00 5.049138888330E-09 1.254541490974E+00
     1.508742570877E-07 3.198934835382E-03 4.282221198082E-06 5.153562276840E+03
     3.888000000000E+05-7.450580596924E-09 1.332945151773E+00-6.146728992462E-08
     9.593398369263E-01 2.936875000000E+02 2.004822730125E+00-8.318917944895E-09
    -5.357366012941E-12 1.000000000000E+00 2.338000000000E+03 0.000000000000E+00
     2.000000000000E+00 0.000000000000E+00 4.656612873077E-10 9.700000000000E+01
     3.816180000000E+05 4.000000000000E+00
G20 2024 10 31 12 00 00 3.691646270454E-04-3.410605131648E-13 0.000000000000E+00
     4.200000000000E+01-1.025000000000E+01 4.560904265684E-09-8.573440254200E-01
    -3.837049007416E-07 3.846356878057E-03 1.183338463306E-05 5.153628143311E+03
     3.888000000000E+05 5.587935447693E-08 1.318978497320E-01 7.264316082001E-08
     9.562636274184E-01 1.483125000000E+02-2.484199504675E+00-7.901400553620E-09
     4.571618997710E-10 1.000000000000E+00 2.338000000000E+03 0.000000000000E+00
     2.800000000000E+00 0.000000000000E+00-8.381903171539E-09 4.200000000000E+01
     3.816180000000E+05 4.000000000000E+00
G11 2024 10 31 12 00 00-7.476559840143E-04-2.273736754432E-12 0.000000000000E+00
     8.900000000000E+01-1.174687500000E+02 4.356610041724E-09-1.536191915417E-01
    -6.020069122314E-06 1.731609110720E-03 8.882954716682E-06 5.153568683624E+03
     3.888000000000E+05 1.862645149231E-08-6.889350393097E-01 2.421438694000E-08
     9.661818374888E-01 2.135312500000E+02-2.435779103314E+00-8.013190924423E-09
    -2.103659054415E-10 1.000000000000E+00 2.338000000000E+03 0.000000000000E+00
     2.000000000000E+00 0.000000000000E+00-8.847564458847E-09 3.450000000000E+02
     3.816180000000E+05 4.000000000000E+00
G06 2024 10 31 12 00 00-7.898313924670E-05-2.842170943040E-11 0.000000000000E+00
     2.100000000000E+01-1.081875000000E+02 3.804801342391E-09-1.171533084861E+00
    -5.824491381645E-06 3.198823425919E-03 9.080395102501E-06 5.153725063324E+03
     3.888000000000E+05-3.539025783539E-08-7.185001528725E-01-2.793967723846E-08
     9.895250990179E-01 2.215937500000E+02-7.692740076016E-01-7.772823769309E-09
    -2.082229590363E-10 1.000000000000E+00 2.338000000000E+03 0.000000000000E+00
     2.000000000000E+00 0.000000000000E+00 3.725290298462E-09 2.100000000000E+01
     3.816180000000E+05 4.000000000000E+00
G04 2024 10 31 12 00 00 4.713656380773E-04 6.593836587854E-12 0.000000000000E+00
     1.740000000000E+02 1.562500000000E+00 4.938777148463E-09 4.228533299271E-01
    -3.166496753693E-08 3.116686479189E-03 4.034489393234E-06 5.153685949326E+03
     3.888000000000E+05-2.980232238770E-08 1.393702954259E+00-2.048909664154E-08
     9.655891742649E-01 3.001875000000E+02-3.009165590317E+00-8.323918153174E-09
    -1.107188976008E-10 1.000000000000E+00 2.338000000000E+03 0.000000000000E+00
     2.000000000000E+00 0.000000000000E+00-4.656612873077E-09 9.420000000000E+02
     3.816180000000E+05 4.000000000000E+00
G05 2024 10 31 12 00 00-1.915320754051E-04-1.250555214938E-12 0.000000000000E+00
     9.200000000000E+01-4.187500000000E+00 4.213389790311E-09 1.043703129008E+00
    -1.061707735062E-07 5.733491503634E-03 1.149438321590E-05 5.153696031570E+03
     3.888000000000E+05-1.098960638046E-07 2.633660184804E-01 4.656612873077E-08
     9.739011500235E-01 1.668437500000E+02 1.336902738702E+00-7.816039855147E-09
     5.103784021662E-10 1.000000000000E+00 2.338000000000E+03 0.000000000000E+00
     2.000000000000E+00 0.000000000000E+00-1.071020960808E-08 9.200000000000E+01
     3.816180000000E+05 4.000000000000E+00
G14 2024 10 31 12 00 00 5.296152085066E-04 8.299139153678E-12 0.000000000000E+00
     2.370000000000E+02 1.195312500000E+02 4.479115144553E-09-2.929437826273E+00
     6.165355443954E-06 4.962273058482E-03 9.311363101006E-06 5.153705953598E+03
     3.888000000000E+05 7.450580596924E-09-2.808532392727E+00-1.862645149231E-08
     9.452233840508E-01 1.920625000000E+02-2.857334903902E+00-8.028548706994E-09
     2.739399821284E-10 1.000000000000E+00 2.338000000000E+03 0.000000000000E+00
     2.000000000000E+00 0.000000000000E+00-7.916241884232E-09 4.930000000000E+02
     3.816180000000E+05 4.000000000000E+00
G16 2024 10 31 12 00 00-1.405715011060E-04 9.890754881781E-12 0.000000000000E+00
     2.100000000000E+01 1.013750000000E+02 4.256963033883E-09 1.713644987324E+00
     5.181878805161E-06 1.414706883952E-02 9.166076779366E-06 5.153652357101E+03
     3.888000000000E+05-3.091990947723E-07-2.743967350328E+00-7.264316082001E-08
     9.612617514046E-01 2.073437500000E+02 8.501167961026E-01-8.060335745337E-09
     1.714357124141E-10 1.000000000000E+00 2.338000000000E+03 0.000000000000E+00
     2.000000000000E+00 0.000000000000E+00-1.024454832077E-08 2.100000000000E+01
     3.816180000000E+05 4.000000000000E+00
G13 2024 10 31 12 00 00 6.839833222330E-04 1.705302565824E-12 0.000000000000E+00
     3.200000000000E+01-4.312500000000E+00 4.887703592473E-09 4.161762806926E-01
    -5.960464477539E-08 8.750607375987E-03 4.502013325691E-06 5.153680265427E+03
     3.888000000000E+05-5.215406417847E-08 1.501293793975E+00 8.754432201385E-08
     9.718923294337E-01 2.966875000000E+02 9.736467529582E-01-8.351776456441E-09
    -1.946509651369E-10 1.000000000000E+00 2.338000000000E+03 0.000000000000E+00
     2.000000000000E+00 0.000000000000E+00-1.164153218269E-08 3.200000000000E+01
     3.823320000000E+05 4.000000000000E+00
G08 2024 10 31 12 00 00 4.004701040685E-04 1.080024958355E-11 0.000000000000E+00
     4.200000000000E+01 2.850000000000E+01 4.968064082668E-09 7.367114538920E-01
     1.531094312668E-06 9.868981433101E-03 1.197680830956E-06 5.153703557968E+03
     3.888000000000E+05 1.676380634308E-08-1.820312194692E+00 1.769512891769E-07
     9.505218890063E-01 3.495000000000E+02 3.743077495916E-01-8.670718313078E-09
     5.785955293977E-11 1.000000000000E+00 2.338000000000E+03 0.000000000000E+00
     2.800000000000E+00 0.000000000000E+00 4.656612873077E-09 4.200000000000E+01
     3.827880000000E+05 4.000000000000E+00
G27 2024 10 31 12 00 00-3.473507240415E-05 0.000000000000E+00 0.000000000000E+00
     3.100000000000E+01 2.396875000000E+01 4.798414158924E-09 7.930676621086E-01
     1.199543476105E-06 1.276605622843E-02 1.713633537292E-06 5.153684522629E+03
     3.888000000000E+05-1.173466444016E-07-1.792467035378E+00 1.061707735062E-07
     9.595482866605E-01 3.458750000000E+02 7.989866257314E-01-8.667861051205E-09
     7.143154683922E-13 1.000000000000E+00 2.338000000000E+03 0.000000000000E+00
     2.000000000000E+00 0.000000000000E+00 1.862645149231E-09 3.100000000000E+01
     3.833580000000E+05 4.000000000000E+00
G22 2024 10 31 12 00 00-7.567927241325E-05-3.069544618484E-12 0.000000000000E+00
     9.100000000000E+01 1.093125000000E+02 4.343752363293E-09 1.205899339028E+00
     5.496665835381E-06 1.388963323552E-02 8.674338459969E-06 5.153689117432E+03
     3.888000000000E+05 2.346932888031E-07-2.740676535127E+00-3.036111593246E-07
     9.606099204590E-01 2.088750000000E+02-1.095653756503E+00-8.058192798932E-09
     2.996553389905E-10 1.000000000000E+00 2.338000000000E+03 0.000000000000E+00
     2.000000000000E+00 0.000000000000E+00-1.117587089539E-08 9.100000000000E+01
     3.841380000000E+05 4.000000000000E+00
G05 2024 10 31 11 59 44-1.915311440825E-04-1.250555214938E-12 0.000000000000E+00
     1.100000000000E+01-4.187500000000E+00 4.213389790311E-09 1.041369566937E+00
    -1.061707735062E-07 5.733492085710E-03 1.149438321590E-05 5.153696035385E+03
     3.887840000000E+05-1.098960638046E-07 2.633661516059E-01 4.656612873077E-08
     9.739011368572E-01 1.668437500000E+02 1.336902586559E+00-7.816039855147E-09
     5.103784021662E-10 1.000000000000E+00 2.338000000000E+03 0.000000000000E+00
     2.000000000000E+00 0.000000000000E+00-1.071020960808E-08 1.100000000000E+01
     3.859560000000E+05 4.000000000000E+00
G09 2024 10 31 11 59 44 4.227552562952E-04 1.682565198280E-11 0.000000000000E+00
     6.000000000000E+00 6.812500000000E+00 5.049138888330E-09 1.252206878528E+00
     1.508742570877E-07 3.198932041414E-03 4.282221198082E-06 5.153562274933E+03
     3.887840000000E+05-7.450580596924E-09 1.332945283436E+00-6.146728992462E-08
     9.593398471668E-01 2.936875000000E+02 2.004823435252E+00-8.318917944895E-09
    -5.714523747137E-12 1.000000000000E+00 2.338000000000E+03 0.000000000000E+00
     2.000000000000E+00 0.000000000000E+00 4.656612873077E-10 6.000000000000E+00
     3.861180000000E+05 4.000000000000E+00
